[{"OBJECT_NAME":"STARLINK-5862","OBJECT_ID":"2023-037G","EPOCH":"2026-03-09T22:41:26.758176","MEAN_MOTION":14.98328519,"ECCENTRICITY":0.00027459,"INCLINATION":69.9976,"RA_OF_ASC_NODE":284.0081,"ARG_OF_PERICENTER":270.8267,"MEAN_ANOMALY":89.2578,"EPHEMERIS_TYPE":0,"CLASSIFICATION_TYPE":"U","NORAD_CAT_ID":55920,"ELEMENT_SET_NO":999,"REV_AT_EPOCH":16401,"BSTAR":7.8461693e-5,"MEAN_MOTION_DOT":8.43e-6,"MEAN_MOTION_DDOT":0},{"OBJECT_NAME":"HAWK-10A","OBJECT_ID":"2024-149CA","EPOCH":"2026-03-09T19:11:42.074592","MEAN_MOTION":14.96174213,"ECCENTRICITY":0.00043334,"INCLINATION":97.6943,"RA_OF_ASC_NODE":146.4192,"ARG_OF_PERICENTER":57.1994,"MEAN_ANOMALY":302.9645,"EPHEMERIS_TYPE":0,"CLASSIFICATION_TYPE":"U","NORAD_CAT_ID":60540,"ELEMENT_SET_NO":999,"REV_AT_EPOCH":8512,"BSTAR":0.00019454,"MEAN_MOTION_DOT":2.135e-5,"MEAN_MOTION_DDOT":0}]
